NORAD_CAT_ID,OBJECT_NAME,OBJECT_TYPE,EPOCH,MEAN_MOTION,ECCENTRICITY,INCLINATION,RA_OF_ASC_NODE,ARG_OF_PERICENTER,MEAN_ANOMALY,BSTAR,MEAN_MOTION_DOT,MEAN_MOTION_DDOT,TLE_LINE0,TLE_LINE1,TLE_LINE2,SEMIMAJOR_AXIS,PERIOD,APOGEE,PERIGEE,DECAYED
55670.0,STARLINK-5423,PAYLOAD,2024-01-01 10:10:20,14.98331425,0.0002717,70.0002,17.1056,263.0117,97.0733,2.3645e-05,1.89e-06,0.0,0 STARLINK-5423,1 55670U 23021AU  24001.42384539  .00000189  00000-0  23645-4 0  9998,2 55670  70.0002  17.1056 0002717 263.0117  97.0733 14.98331425 49711,6950.188,96.107,573.942,570.165,0.0
55670.0,STARLINK-5423,PAYLOAD,2024-01-02 03:47:49,14.98328784,0.0002841,70.0001,15.2539,267.6439,92.4395,2.2322e-05,1.73e-06,0.0,0 STARLINK-5423,1 55670U 23021AU  24002.15820622  .00000173  00000-0  22322-4 0  9991,2 55670  70.0001  15.2539 0002841 267.6439  92.4395 14.98328784 49526,6950.197,96.107,574.036,570.087,0.0
55670.0,STARLINK-5423,PAYLOAD,2024-01-02 10:12:21,14.98329718,0.0002799,70.0002,14.5807,266.4454,93.6385,3.4107e-05,3.14e-06,0.0,0 STARLINK-5423,1 55670U 23021AU  24002.42524545  .00000314  00000-0  34107-4 0  9997,2 55670  70.0002  14.5807 0002799 266.4454  93.6385 14.98329718 49860,6950.194,96.107,574.004,570.113,0.0
55670.0,STARLINK-5423,PAYLOAD,2024-01-03 03:49:49,14.98331227,0.0002736,70.0003,12.729,262.2479,97.837,2.1888e-05,1.68e-06,0.0,0 STARLINK-5423,1 55670U 23021AU  24003.15960399  .00000168  00000-0  21888-4 0  9998,2 55670  70.0003  12.7290 0002736 262.2479  97.8370 14.98331227 49676,6950.189,96.107,573.956,570.153,0.0
55670.0,STARLINK-5423,PAYLOAD,2024-01-03 10:14:22,14.98331026,0.000274,70.0003,12.0557,262.8339,97.2508,1.8679e-05,1.3e-06,0.0,0 STARLINK-5423,1 55670U 23021AU  24003.42664405  .00000130  00000-0  18679-4 0  9990,2 55670  70.0003  12.0557 0002740 262.8339  97.2508 14.98331026 50015,6950.19,96.107,573.959,570.15,0.0
55670.0,STARLINK-5423,PAYLOAD,2024-01-04 03:51:50,14.98328776,0.0002719,70.0003,10.2039,261.9413,98.1437,1.1801e-05,4.8e-07,0.0,0 STARLINK-5423,1 55670U 23021AU  24004.16100548  .00000048  00000-0  11801-4 0  9993,2 55670  70.0003  10.2039 0002719 261.9413  98.1437 14.98328776 49825,6950.197,96.107,573.951,570.172,0.0
55670.0,STARLINK-5423,PAYLOAD,2024-01-04 10:16:23,14.98328913,0.0002726,70.0004,9.5306,262.8001,97.2849,1.1377e-05,4.3e-07,0.0,0 STARLINK-5423,1 55670U 23021AU  24004.42804557  .00000043  00000-0  11377-4 0  9996,2 55670  70.0004   9.5306 0002726 262.8001  97.2849 14.98328913 50164,6950.196,96.107,573.956,570.167,0.0
55670.0,STARLINK-5423,PAYLOAD,2024-01-05 03:53:51,14.98330248,0.0002731,70.0004,7.6792,262.4584,97.6265,1.3627e-05,7e-07,0.0,0 STARLINK-5423,1 55670U 23021AU  24005.16240445  .00000070  00000-0  13627-4 0  9998,2 55670  70.0004   7.6792 0002731 262.4584  97.6265 14.98330248 49977,6950.192,96.107,573.955,570.159,0.0
55670.0,STARLINK-5423,PAYLOAD,2024-01-05 10:18:24,14.983294,0.0002753,70.0003,7.0056,264.0024,96.0821,2.508e-06,-6.3e-07,0.0,0 STARLINK-5423,1 55670U 23021AU  24005.42944549 -.00000063  00000-0  25080-5 0  9993,2 55670  70.0003   7.0056 0002753 264.0024  96.0821 14.98329400 50313,6950.195,96.107,573.973,570.146,0.0
55670.0,STARLINK-5423,PAYLOAD,2024-01-06 03:55:52,14.98330826,0.0002816,70.0002,5.1538,265.7945,94.2892,3.9425e-05,3.77e-06,0.0,0 STARLINK-5423,1 55670U 23021AU  24006.16380343  .00000377  00000-0  39425-4 0  9995,2 55670  70.0002   5.1538 0002816 265.7945  94.2892 14.98330826 50127,6950.19,96.107,574.013,570.098,0.0
55670.0,STARLINK-5423,PAYLOAD,2024-01-06 10:20:24,14.98331272,0.0002811,70.0003,4.4806,266.051,94.0328,4.1968e-05,4.08e-06,0.0,0 STARLINK-5423,1 55670U 23021AU  24006.43084302  .00000408  00000-0  41968-4 0  9991,2 55670  70.0003   4.4806 0002811 266.0510  94.0328 14.98331272 50460,6950.189,96.107,574.008,570.1,0.0
55670.0,STARLINK-5423,PAYLOAD,2024-01-07 03:57:53,14.98330107,0.0002816,70.0003,2.6289,266.8579,93.2258,1.9189e-05,1.36e-06,0.0,0 STARLINK-5423,1 55670U 23021AU  24007.16520384  .00000136  00000-0  19189-4 0  9995,2 55670  70.0003   2.6289 0002816 266.8579  93.2258 14.98330107 50271,6950.193,96.107,574.015,570.1,0.0
55670.0,STARLINK-5423,PAYLOAD,2024-01-07 10:22:25,14.9833082,0.0002801,70.0004,1.9556,266.2789,93.805,2.6861e-05,2.28e-06,0.0,0 STARLINK-5423,1 55670U 23021AU  24007.43224316  .00000228  00000-0  26861-4 0  9998,2 55670  70.0004   1.9556 0002801 266.2789  93.8050 14.98330820 50618,6950.19,96.107,574.002,570.109,0.0
55670.0,STARLINK-5423,PAYLOAD,2024-01-08 03:59:54,14.98329551,0.0002749,70.0005,0.1042,263.1174,96.9672,-1.9959e-06,-1.17e-06,0.0,0 STARLINK-5423,1 55670U 23021AU  24008.16660442 -.00000117  00000-0 -19959-5 0  9993,2 55670  70.0005   0.1042 0002749 263.1174  96.9672 14.98329551 50427,6950.194,96.107,573.97,570.149,0.0
55670.0,STARLINK-5423,PAYLOAD,2024-01-08 08:48:18,14.98332806,0.0002853,69.9998,359.5983,266.2677,93.8156,2.0334e-06,-6.9e-07,0.0,0 STARLINK-5423,1 55670U 23021AU  24008.36688237 -.00000069  00000-0  20334-5 0  9991,2 55670  69.9998 359.5983 0002853 266.2677  93.8156 14.98332806 50754,6950.184,96.107,574.032,570.066,0.0
55670.0,STARLINK-5423,PAYLOAD,2024-01-09 04:01:55,14.98329957,0.0002971,69.9999,357.5779,268.9693,91.1126,1.5845e-05,9.6e-07,0.0,0 STARLINK-5423,1 55670U 23021AU  24009.16800294  .00000096  00000-0  15845-4 0  9998,2 55670  69.9999 357.5779 0002971 268.9693  91.1126 14.98329957 50575,6950.193,96.107,574.123,569.993,0.0
55670.0,STARLINK-5423,PAYLOAD,2024-01-09 08:50:19,14.98334292,0.0002947,70.0003,357.073,269.4581,90.6241,6.2223e-05,6.5e-06,0.0,0 STARLINK-5423,1 55670U 23021AU  24009.36827869  .00000650  00000-0  62223-4 0  9995,2 55670  70.0003 357.0730 0002947 269.4581  90.6241 14.98334292 50908,6950.18,96.107,574.093,569.996,0.0
55670.0,STARLINK-5423,PAYLOAD,2024-01-10 04:03:56,14.98329145,0.0002866,70.0003,355.0537,270.1793,89.9037,1.5783e-05,9.5e-07,0.0,0 STARLINK-5423,1 55670U 23021AU  24010.16940315  .00000095  00000-0  15783-4 0  9999,2 55670  70.0003 355.0537 0002866 270.1793  89.9037 14.98329145 50720,6950.196,96.107,574.052,570.069,0.0
55670.0,STARLINK-5423,PAYLOAD,2024-01-10 08:52:20,14.98331485,0.0002843,70.0004,354.549,269.7795,90.3039,4.1736e-05,4.05e-06,0.0,0 STARLINK-5423,1 55670U 23021AU  24010.36968091  .00000405  00000-0  41736-4 0  9994,2 55670  70.0004 354.5490 0002843 269.7795  90.3039 14.98331485 51059,6950.188,96.107,574.029,570.077,0.0
55670.0,STARLINK-5423,PAYLOAD,2024-01-11 04:05:57,14.98328563,0.0002766,70.0009,352.5299,262.9421,97.1424,2.89e-05,2.52e-06,0.0,0 STARLINK-5423,1 55670U 23021AU  24011.17080326  .00000252  00000-0  28900-4 0  9998,2 55670  70.0009 352.5299 0002766 262.9421  97.1424 14.98328563 50879,6950.197,96.107,573.985,570.14,0.0
55670.0,STARLINK-5423,PAYLOAD,2024-01-11 08:54:21,14.98334691,0.0002607,70.0009,352.0245,256.9029,103.184,4.7992e-05,4.8e-06,0.0,0 STARLINK-5423,1 55670U 23021AU  24011.37107820  .00000480  00000-0  47992-4 0  9994,2 55670  70.0009 352.0245 0002607 256.9029 103.1840 14.98334691 51203,6950.178,96.107,573.855,570.231,0.0
55670.0,STARLINK-5423,PAYLOAD,2024-01-12 04:07:58,14.98322665,0.0002613,70.0012,350.0037,263.3476,96.7385,-1.8321e-05,-3.11e-06,0.0,0 STARLINK-5423,1 55670U 23021AU  24012.17220610 -.00000311  00000-0 -18321-4 0  9995,2 55670  70.0012 350.0037 0002613 263.3476  96.7385 14.98322665 51028,6950.216,96.107,573.897,570.264,0.0
55670.0,STARLINK-5423,PAYLOAD,2024-01-12 08:56:22,14.98327336,0.0002663,70.0013,349.4995,258.0246,102.0614,1.5143e-05,8.8e-07,0.0,0 STARLINK-5423,1 55670U 23021AU  24012.37248252  .00000088  00000-0  15143-4 0  9997,2 55670  70.0013 349.4995 0002663 258.0246 102.0614 14.98327336 51357,6950.201,96.107,573.917,570.215,0.0
55670.0,STARLINK-5423,PAYLOAD,2024-01-13 04:09:59,14.98327586,0.0002782,70.001,347.4797,254.3354,105.7499,4.1204e-05,3.99e-06,0.0,0 STARLINK-5423,1 55670U 23021AU  24013.17360198  .00000399  00000-0  41204-4 0  9992,2 55670  70.0010 347.4797 0002782 254.3354 105.7499 14.98327586 51171,6950.2,96.107,573.999,570.132,0.0
55670.0,STARLINK-5423,PAYLOAD,2024-01-13 08:58:23,14.98329935,0.0002617,70.0011,346.9751,247.4381,112.6501,4.1631e-05,4.04e-06,0.0,0 STARLINK-5423,1 55670U 23021AU  24013.37388007  .00000404  00000-0  41631-4 0  9994,2 55670  70.0011 346.9751 0002617 247.4381 112.6501 14.98329935 51504,6950.193,96.107,573.877,570.239,0.0
55670.0,STARLINK-5423,PAYLOAD,2024-01-14 04:12:00,14.98324152,0.000267,70.0011,344.9543,259.0925,100.9934,8.2011e-05,8.86e-06,0.0,0 STARLINK-5423,1 55670U 23021AU  24014.17500347  .00000886  00000-0  82011-4 0  9997,2 55670  70.0011 344.9543 0002670 259.0925 100.9934 14.98324152 51329,6950.211,96.107,573.932,570.22,0.0
55670.0,STARLINK-5423,PAYLOAD,2024-01-14 07:24:16,14.98326436,0.0002626,70.0009,344.6167,258.9156,101.1708,7.7211e-05,8.28e-06,0.0,0 STARLINK-5423,1 55670U 23021AU  24014.30852222  .00000828  00000-0  77211-4 0  9996,2 55670  70.0009 344.6167 0002626 258.9156 101.1708 14.98326436 51644,6950.204,96.107,573.894,570.244,0.0
55670.0,STARLINK-5423,PAYLOAD,2024-01-15 07:26:17,14.98306907,0.0002586,70.0009,342.0919,261.4889,98.5977,0.00056462,6.646e-05,0.0,0 STARLINK-5423,1 55670U 23021AU  24015.30992389  .00006646  00000-0  56462-3 0  9994,2 55670  70.0009 342.0919 0002586 261.4889  98.5977 14.98306907 51499,6950.264,96.108,573.927,570.332,0.0
55670.0,STARLINK-5423,PAYLOAD,2024-01-15 23:27:38,14.98326473,0.0002729,70.0009,340.4095,264.7997,95.285,-9.2114e-08,-9.4e-07,0.0,0 STARLINK-5423,1 55670U 23021AU  24015.97752423 -.00000094  00000-0 -92114-7 0  9991,2 55670  70.0009 340.4095 0002729 264.7997  95.2850 14.98326473 51596,6950.204,96.107,573.966,570.172,0.0
55670.0,STARLINK-5423,PAYLOAD,2024-01-16 09:04:25,14.98340639,0.0003047,70.0005,339.3996,267.8796,92.2015,0.0001271,1.424e-05,0.0,0 STARLINK-5423,1 55670U 23021AU  24016.37806963  .00001424  00000-0  12710-3 0  9991,2 55670  70.0005 339.3996 0003047 267.8796  92.2015 14.98340639 51651,6950.16,96.106,574.143,569.907,0.0
